KUIPER-00061            
1 64521U 25134X   25260.91668981  .00037290  00000+0  19866-2 0  9998
2 64521  51.8836 275.4670 0008016  55.7268 154.8543 15.14827656  5101
KUIPER-00062            
1 64522U 25134Y   25260.48551567  .00008129  00000+0  55276-3 0  9997
2 64522  51.8846 283.4839 0010849  68.8148 291.3985 15.07102529 14360
KUIPER-00063            
1 64523U 25134Z   25260.91668981  .00033252  00000+0  44049-2 0  9995
2 64523  51.9010 281.9516 0004195  29.8535 208.1159 14.79586764  5144
KUIPER-00064            
1 64524U 25134AA  25260.91668981 -.00024159  00000+0 -22929-2 0  9997
2 64524  51.8927 279.4309 0006343 141.4940  15.4589 14.92837379  5277
KUIPER-00065            
1 64525U 25134AB  25260.91668981  .00037350  00000+0  49160-2 0  9999
2 64525  51.8997 284.1942 0011636  73.2108 352.7716 14.79764073  5623
KUIPER-00066            
1 64526U 25134AC  25260.05618734  .00012698  00000+0  62913-3 0  9996
2 64526  51.8854 282.0975 0006118  50.7716 309.3805 15.18080116 14342
KUIPER-00069            
1 64816U 25151A   25260.23809226  .00045576  00000+0  12338-2 0  9991
2 64816  51.8802 343.6791 0007497  11.1112 349.0039 15.37205292 10856
KUIPER-00070            
1 64817U 25151B   25260.91668981 -.00056692  00000+0 -71975-2 0  9993
2 64817  51.8983 349.4834 0009694  54.2758  12.5414 14.81447306  4702
